{
  "norad_id": 68369,
  "name": "RASSVET-3 OBJECT K",
  "history": [
    {
      "epoch": "2026-03-31T15:46:05.226816Z",
      "apogee_km": 323.9676167295047,
      "perigee_km": 288.172351488206,
      "latitude_deg": 2.7900990632536723e-06,
      "longitude_deg": 34.15788004762926,
      "height_km": 296.44183500577003,
      "semi_major_axis_km": 6684.206984108855,
      "eccentricity": 0.0026776,
      "inclination_deg": 82.2971,
      "raan_deg": 99.7109,
      "arg_perigee_deg": 44.5811,
      "mean_anomaly_deg": 315.7607,
      "mean_motion_rev_day": 15.88648903
    }
  ]
}